[{"OBJECT_NAME":"STARLINK-6056","OBJECT_ID":"2023-078AY","EPOCH":"2026-03-09T22:48:38.550816","MEAN_MOTION":14.98319506,"ECCENTRICITY":0.00026172,"INCLINATION":70.0016,"RA_OF_ASC_NODE":343.6264,"ARG_OF_PERICENTER":258.7563,"MEAN_ANOMALY":101.3302,"EPHEMERIS_TYPE":0,"CLASSIFICATION_TYPE":"U","NORAD_CAT_ID":56813,"ELEMENT_SET_NO":999,"REV_AT_EPOCH":15272,"BSTAR":7.2557614e-5,"MEAN_MOTION_DOT":7.73e-6,"MEAN_MOTION_DDOT":0},{"OBJECT_NAME":"HAWK-9B","OBJECT_ID":"2024-066J","EPOCH":"2026-03-09T10:21:05.061312","MEAN_MOTION":14.9877824,"ECCENTRICITY":0.00037519,"INCLINATION":45.6215,"RA_OF_ASC_NODE":73.5456,"ARG_OF_PERICENTER":229.3903,"MEAN_ANOMALY":130.6652,"EPHEMERIS_TYPE":0,"CLASSIFICATION_TYPE":"U","NORAD_CAT_ID":59450,"ELEMENT_SET_NO":999,"REV_AT_EPOCH":10486,"BSTAR":0.00023214291,"MEAN_MOTION_DOT":2.608e-5,"MEAN_MOTION_DDOT":0}]
